NORAD_CAT_ID,OBJECT_NAME,OBJECT_TYPE,EPOCH,MEAN_MOTION,ECCENTRICITY,INCLINATION,RA_OF_ASC_NODE,ARG_OF_PERICENTER,MEAN_ANOMALY,BSTAR,MEAN_MOTION_DOT,MEAN_MOTION_DDOT,TLE_LINE0,TLE_LINE1,TLE_LINE2,SEMIMAJOR_AXIS,PERIOD,APOGEE,PERIGEE,DECAYED
52848.0,STARLINK-4202,PAYLOAD,2023-09-23 18:45:03,15.08845789,0.0001294,53.2168,104.987,106.3315,253.782,8.3878e-05,1.047e-05,0.0,0 STARLINK-4202,1 52848U 22062U   23266.78129195  .00001047  00000-0  83878-4 0  9990,2 52848  53.2168 104.9870 0001294 106.3315 253.7820 15.08845789 70726,6917.863,95.437,540.623,538.833,0.0
52848.0,STARLINK-4202,PAYLOAD,2023-09-23 23:31:13,15.08847475,0.0001211,53.2168,104.0964,91.7657,268.3474,0.00013758,1.903e-05,0.0,0 STARLINK-4202,1 52848U 22062U   23266.98001179  .00001903  00000-0  13758-3 0  9993,2 52848  53.2168 104.0964 0001211  91.7657 268.3474 15.08847475 70266,6917.858,95.437,540.56,538.885,0.0
52848.0,STARLINK-4202,PAYLOAD,2023-09-24 18:35:50,15.08840405,0.0001167,53.2164,100.5285,87.5755,272.5371,5.4275e-05,5.76e-06,0.0,0 STARLINK-4202,1 52848U 22062U   23267.77489460  .00000576  00000-0  54275-4 0  9999,2 52848  53.2164 100.5285 0001167  87.5755 272.5371 15.08840405 70877,6917.879,95.438,540.551,538.937,0.0
52848.0,STARLINK-4202,PAYLOAD,2023-09-25 05:43:32,15.08846059,0.0001149,53.2163,98.4468,88.6532,271.4592,0.00019161,2.763e-05,0.0,0 STARLINK-4202,1 52848U 22062U   23268.23857386  .00002763  00000-0  19161-3 0  9991,2 52848  53.2163  98.4468 0001149  88.6532 271.4592 15.08846059 70457,6917.862,95.437,540.522,538.932,0.0
52848.0,STARLINK-4202,PAYLOAD,2023-09-25 20:02:00,15.08846688,0.0001134,53.2162,95.7705,87.7096,272.4026,0.00024217,3.569e-05,0.0,0 STARLINK-4202,1 52848U 22062U   23268.83473371  .00003569  00000-0  24217-3 0  9998,2 52848  53.2162  95.7705 0001134  87.7096 272.4026 15.08846688 71035,6917.86,95.437,540.509,538.94,0.0
52848.0,STARLINK-4202,PAYLOAD,2023-09-26 18:17:25,15.08835403,0.0001366,53.2167,91.6075,69.8131,290.3008,2.254e-05,7.1e-07,0.0,0 STARLINK-4202,1 52848U 22062U   23269.76210275  .00000071  00000-0  22540-4 0  9996,2 52848  53.2167  91.6075 0001366  69.8131 290.3008 15.08835403 71170,6917.894,95.438,540.704,538.814,0.0
52848.0,STARLINK-4202,PAYLOAD,2023-09-26 19:52:48,15.08837146,0.0001352,53.2164,91.3094,85.189,274.9256,0.00010205,1.336e-05,0.0,0 STARLINK-4202,1 52848U 22062U   23269.82834221  .00001336  00000-0  10205-3 0  9995,2 52848  53.2164  91.3094 0001352  85.1890 274.9256 15.08837146 70698,6917.889,95.438,540.689,538.819,0.0
52848.0,STARLINK-4202,PAYLOAD,2023-09-27 11:46:40,15.08837742,0.0001376,53.2162,88.3359,88.6579,271.4571,0.00013513,1.863e-05,0.0,0 STARLINK-4202,1 52848U 22062U   23270.49074455  .00001863  00000-0  13513-3 0  9995,2 52848  53.2162  88.3359 0001376  88.6579 271.4571 15.08837742 70799,6917.887,95.438,540.704,538.8,0.0
52848.0,STARLINK-4202,PAYLOAD,2023-09-27 18:08:12,15.0884497,0.0001345,53.2159,87.1473,84.7394,275.3751,0.00023691,3.485e-05,0.0,0 STARLINK-4202,1 52848U 22062U   23270.75570228  .00003485  00000-0  23691-3 0  9993,2 52848  53.2159  87.1473 0001345  84.7394 275.3751 15.08844970 71321,6917.865,95.437,540.661,538.8,0.0
52848.0,STARLINK-4202,PAYLOAD,2023-09-28 11:37:27,15.08845905,0.0001389,53.2158,83.8763,82.918,277.197,0.00025704,3.806e-05,0.0,0 STARLINK-4202,1 52848U 22062U   23271.48434250  .00003806  00000-0  25704-3 0  9992,2 52848  53.2158  83.8763 0001389  82.9180 277.1970 15.08845905 70945,6917.862,95.437,540.688,538.766,0.0
52848.0,STARLINK-4202,PAYLOAD,2023-09-28 17:58:59,15.08848035,0.0001378,53.2159,82.6869,82.1789,277.936,0.00025815,3.824e-05,0.0,0 STARLINK-4202,1 52848U 22062U   23271.74930096  .00003824  00000-0  25815-3 0  9993,2 52848  53.2159  82.6869 0001378  82.1789 277.9360 15.08848035 70987,6917.856,95.437,540.674,538.768,0.0
52848.0,STARLINK-4202,PAYLOAD,2023-09-29 11:28:14,15.08845907,0.0001461,53.2166,79.4171,78.223,281.8926,0.00013361,1.839e-05,0.0,0 STARLINK-4202,1 52848U 22062U   23272.47794026  .00001839  00000-0  13361-3 0  9992,2 52848  53.2166  79.4171 0001461  78.2230 281.8926 15.08845907 71589,6917.862,95.437,540.738,538.717,0.0
52848.0,STARLINK-4202,PAYLOAD,2023-09-29 14:39:00,15.08846713,0.0001434,53.2169,78.8224,79.3462,280.7692,0.00014124,1.961e-05,0.0,0 STARLINK-4202,1 52848U 22062U   23272.61041977  .00001961  00000-0  14124-3 0  9992,2 52848  53.2169  78.8224 0001434  79.3462 280.7692 15.08846713 71116,6917.86,95.437,540.717,538.733,0.0
52848.0,STARLINK-4202,PAYLOAD,2023-09-29 17:49:46,15.0884854,0.0001493,53.2173,78.2278,82.9749,277.1413,0.0001399,1.94e-05,0.0,0 STARLINK-4202,1 52848U 22062U   23272.74289802  .00001940  00000-0  13990-3 0  9994,2 52848  53.2173  78.2278 0001493  82.9749 277.1413 15.08848540 71130,6917.854,95.437,540.752,538.686,0.0
52848.0,STARLINK-4202,PAYLOAD,2023-09-30 17:40:33,15.08840473,0.0001357,53.2176,73.7656,91.4114,268.7034,6.928e-06,-1.78e-06,0.0,0 STARLINK-4202,1 52848U 22062U   23273.73650182 -.00000178  00000-0  69280-5 0  9995,2 52848  53.2176  73.7656 0001357  91.4114 268.7034 15.08840473 71775,6917.879,95.438,540.683,538.805,0.0
52848.0,STARLINK-4202,PAYLOAD,2023-10-01 11:09:48,15.08837701,0.0001417,53.2178,70.4943,89.8136,270.3019,-8.5586e-06,-4.24e-06,0.0,0 STARLINK-4202,1 52848U 22062U   23274.46514511 -.00000424  00000-0 -85586-5 0  9993,2 52848  53.2178  70.4943 0001417  89.8136 270.3019 15.08837701 71392,6917.887,95.438,540.733,538.772,0.0
52848.0,STARLINK-4202,PAYLOAD,2023-10-01 17:31:20,15.08842755,0.0001563,53.2182,69.3085,89.391,270.7261,8.0837e-05,9.99e-06,0.0,0 STARLINK-4202,1 52848U 22062U   23274.73009994  .00000999  00000-0  80837-4 0  9995,2 52848  53.2182  69.3085 0001563  89.3910 270.7261 15.08842755 71431,6917.872,95.437,540.818,538.656,0.0
52848.0,STARLINK-4202,PAYLOAD,2023-10-02 11:00:35,15.08836383,0.000176,53.2172,66.0373,97.8009,262.3183,-1.3165e-06,-3.09e-06,0.0,0 STARLINK-4202,1 52848U 22062U   23275.45874849 -.00000309  00000-0 -13165-5 0  9992,2 52848  53.2172  66.0373 0001760  97.8009 262.3183 15.08836383 72033,6917.891,95.438,540.974,538.539,0.0
52848.0,STARLINK-4202,PAYLOAD,2023-10-02 17:22:08,15.08827583,0.0001851,53.2179,64.8482,101.0636,259.0565,0.0001998,2.892e-05,0.0,0 STARLINK-4202,1 52848U 22062U   23275.72370915  .00002892  00000-0  19980-3 0  9993,2 52848  53.2179  64.8482 0001851 101.0636 259.0565 15.08827583 71580,6917.918,95.438,541.064,538.503,0.0
52848.0,STARLINK-4202,PAYLOAD,2023-10-03 14:02:09,15.08838672,0.000157,53.22,60.9818,97.5231,262.594,4.7813e-05,4.73e-06,0.0,0 STARLINK-4202,1 52848U 22062U   23276.58482807  .00000473  00000-0  47813-4 0  9992,2 52848  53.2200  60.9818 0001570  97.5231 262.5940 15.08838672 71715,6917.884,95.438,540.836,538.663,0.0
52848.0,STARLINK-4202,PAYLOAD,2023-10-03 17:12:55,15.08843381,0.0001374,53.2192,60.3864,93.2074,266.9075,6.6572e-05,7.72e-06,0.0,0 STARLINK-4202,1 52848U 22062U   23276.71730431  .00000772  00000-0  66572-4 0  9991,2 52848  53.2192  60.3864 0001374  93.2074 266.9075 15.08843381 72227,6917.87,95.437,540.686,538.785,0.0
52848.0,STARLINK-4202,PAYLOAD,2023-10-04 13:52:55,15.08835854,0.0001432,53.2195,56.5205,98.3663,261.7491,0.00026037,3.858e-05,0.0,0 STARLINK-4202,1 52848U 22062U   23277.57842502  .00003858  00000-0  26037-3 0  9998,2 52848  53.2195  56.5205 0001432  98.3663 261.7491 15.08835854 71861,6917.893,95.438,540.749,538.767,0.0
52848.0,STARLINK-4202,PAYLOAD,2023-10-04 17:03:41,15.08851612,0.0001372,53.2191,55.924,90.3778,269.7371,0.00014162,1.967e-05,0.0,0 STARLINK-4202,1 52848U 22062U   23277.71089689  .00001967  00000-0  14162-3 0  9998,2 52848  53.2191  55.9240 0001372  90.3778 269.7371 15.08851612 71888,6917.845,95.437,540.659,538.761,0.0
52848.0,STARLINK-4202,PAYLOAD,2023-10-05 02:36:00,15.0884413,0.0001443,53.2199,54.1429,87.1393,272.9765,9.9766e-05,1.3e-05,0.0,0 STARLINK-4202,1 52848U 22062U   23278.10834243  .00001300  00000-0  99766-4 0  9991,2 52848  53.2199  54.1429 0001443  87.1393 272.9765 15.08844130 72434,6917.868,95.437,540.731,538.735,0.0
52848.0,STARLINK-4202,PAYLOAD,2023-10-05 08:57:34,15.08830787,0.000145,53.2201,52.9515,94.1159,265.9999,1.772e-05,-6e-08,0.0,0 STARLINK-4202,1 52848U 22062U   23278.37331387 -.00000006  00000-0  17720-4 0  9994,2 52848  53.2201  52.9515 0001450  94.1159 265.9999 15.08830787 72474,6917.909,95.438,540.777,538.77,0.0
52848.0,STARLINK-4202,PAYLOAD,2023-10-05 13:43:43,15.08838618,0.0001722,53.2195,52.0595,90.2663,269.8526,8.2256e-05,1.021e-05,0.0,0 STARLINK-4202,1 52848U 22062U   23278.57202804  .00001021  00000-0  82256-4 0  9990,2 52848  53.2195  52.0595 0001722  90.2663 269.8526 15.08838618 72014,6917.885,95.438,540.941,538.558,0.0
52848.0,STARLINK-4202,PAYLOAD,2023-10-05 15:19:06,15.08841569,9.79e-05,53.2179,51.7613,79.751,280.3592,6.0828e-05,6.81e-06,0.0,0 STARLINK-4202,1 52848U 22062U   23278.63826562  .00000681  00000-0  60828-4 0  9992,2 52848  53.2179  51.7613 0000979  79.7510 280.3592 15.08841569 72514,6917.876,95.437,540.418,539.063,0.0
52848.0,STARLINK-4202,PAYLOAD,2023-10-06 13:34:30,15.08840123,0.0001527,53.2195,47.5997,92.0391,268.0776,1.2096e-05,-9.5e-07,0.0,0 STARLINK-4202,1 52848U 22062U   23279.56562905 -.00000095  00000-0  12096-4 0  9997,2 52848  53.2195  47.5997 0001527  92.0391 268.0776 15.08840123 72168,6917.88,95.438,540.801,538.689,0.0
52848.0,STARLINK-4202,PAYLOAD,2023-10-06 15:09:53,15.08844116,0.0001416,53.2197,47.3015,96.6582,263.4572,2.0668e-05,4.1e-07,0.0,0 STARLINK-4202,1 52848U 22062U   23279.63186590  .00000041  00000-0  20668-4 0  9991,2 52848  53.2197  47.3015 0001416  96.6582 263.4572 15.08844116 72178,6917.868,95.437,540.712,538.753,0.0
52848.0,STARLINK-4202,PAYLOAD,2023-10-07 08:39:08,15.0883376,0.0001361,53.2196,44.0308,97.937,262.1776,0.00014491,2.019e-05,0.0,0 STARLINK-4202,1 52848U 22062U   23280.36051058  .00002019  00000-0  14491-3 0  9996,2 52848  53.2196  44.0308 0001361  97.9370 262.1776 15.08833760 72775,6917.899,95.438,540.706,538.823,0.0
